[{"OBJECT_NAME":"COSMOS 2588","OBJECT_ID":"2025-109A","EPOCH":"2026-03-09T19:28:59.107008","MEAN_MOTION":15.29122656,"ECCENTRICITY":0.0005019,"INCLINATION":72.9704,"RA_OF_ASC_NODE":73.5401,"ARG_OF_PERICENTER":308.678,"MEAN_ANOMALY":51.3966,"EPHEMERIS_TYPE":0,"CLASSIFICATION_TYPE":"U","NORAD_CAT_ID":64095,"ELEMENT_SET_NO":999,"REV_AT_EPOCH":4442,"BSTAR":0.00032611,"MEAN_MOTION_DOT":9.169e-5,"MEAN_MOTION_DDOT":0},{"OBJECT_NAME":"STARLINK-35519","OBJECT_ID":"2025-225K","EPOCH":"2026-03-09T13:27:35.445024","MEAN_MOTION":15.30182599,"ECCENTRICITY":0.0001012,"INCLINATION":53.1573,"RA_OF_ASC_NODE":165.9062,"ARG_OF_PERICENTER":85.3609,"MEAN_ANOMALY":274.7507,"EPHEMERIS_TYPE":0,"CLASSIFICATION_TYPE":"U","NORAD_CAT_ID":65919,"ELEMENT_SET_NO":999,"REV_AT_EPOCH":2439,"BSTAR":0.00075334,"MEAN_MOTION_DOT":0.00022007,"MEAN_MOTION_DDOT":0}]
